NOAA 9                  
1 15427U 84123A   25006.92725840  .00000421  00000+0  23308-3 0  9992
2 15427  99.1246  15.4654 0015341  42.7357  17.2002 14.16818861 68896
